[{"OBJECT_NAME":"ASTRO-H (HITOMI)","OBJECT_ID":"2016-012A","EPOCH":"2026-03-04T06:42:45.974592","MEAN_MOTION":15.09959716,"ECCENTRICITY":0.00100127,"INCLINATION":31.0006,"RA_OF_ASC_NODE":31.4569,"ARG_OF_PERICENTER":277.2839,"MEAN_ANOMALY":82.6661,"EPHEMERIS_TYPE":0,"CLASSIFICATION_TYPE":"U","NORAD_CAT_ID":41337,"ELEMENT_SET_NO":999,"REV_AT_EPOCH":55141,"BSTAR":0.00031307596,"MEAN_MOTION_DOT":5.308e-5,"MEAN_MOTION_DDOT":0},{"OBJECT_NAME":"HXMT (HUIYAN)","OBJECT_ID":"2017-034A","EPOCH":"2026-03-04T10:42:02.811168","MEAN_MOTION":15.17380699,"ECCENTRICITY":0.00323809,"INCLINATION":43.0149,"RA_OF_ASC_NODE":45.824,"ARG_OF_PERICENTER":203.8527,"MEAN_ANOMALY":156.0821,"EPHEMERIS_TYPE":0,"CLASSIFICATION_TYPE":"U","NORAD_CAT_ID":42758,"ELEMENT_SET_NO":999,"REV_AT_EPOCH":48174,"BSTAR":0.00041223023,"MEAN_MOTION_DOT":8.265e-5,"MEAN_MOTION_DDOT":0},{"OBJECT_NAME":"SAOCOM 1A","OBJECT_ID":"2018-076A","EPOCH":"2026-03-04T15:06:46.612224","MEAN_MOTION":14.82164315,"ECCENTRICITY":0.00013253,"INCLINATION":97.8882,"RA_OF_ASC_NODE":251.8737,"ARG_OF_PERICENTER":82.1775,"MEAN_ANOMALY":277.9589,"EPHEMERIS_TYPE":0,"CLASSIFICATION_TYPE":"U","NORAD_CAT_ID":43641,"ELEMENT_SET_NO":999,"REV_AT_EPOCH":40061,"BSTAR":0.00011747295,"MEAN_MOTION_DOT":8.83e-6,"MEAN_MOTION_DDOT":0},{"OBJECT_NAME":"H-2A R/B","OBJECT_ID":"2018-084L","EPOCH":"2026-03-04T11:22:31.859904","MEAN_MOTION":15.41086443,"ECCENTRICITY":0.00258107,"INCLINATION":98.8732,"RA_OF_ASC_NODE":279.7485,"ARG_OF_PERICENTER":42.8998,"MEAN_ANOMALY":317.4252,"EPHEMERIS_TYPE":0,"CLASSIFICATION_TYPE":"U","NORAD_CAT_ID":43682,"ELEMENT_SET_NO":999,"REV_AT_EPOCH":40497,"BSTAR":0.00075106107,"MEAN_MOTION_DOT":0.00031408,"MEAN_MOTION_DDOT":0},{"OBJECT_NAME":"SAOCOM 1B","OBJECT_ID":"2020-059A","EPOCH":"2026-03-04T15:51:44.218080","MEAN_MOTION":14.82164871,"ECCENTRICITY":0.00014091,"INCLINATION":97.888,"RA_OF_ASC_NODE":251.0023,"ARG_OF_PERICENTER":81.3785,"MEAN_ANOMALY":278.7588,"EPHEMERIS_TYPE":0,"CLASSIFICATION_TYPE":"U","NORAD_CAT_ID":46265,"ELEMENT_SET_NO":999,"REV_AT_EPOCH":29800,"BSTAR":3.6317731e-5,"MEAN_MOTION_DOT":2.37e-6,"MEAN_MOTION_DDOT":0},{"OBJECT_NAME":"CSS (TIANHE)","OBJECT_ID":"2021-035A","EPOCH":"2026-03-04T12:45:43.653600","MEAN_MOTION":15.60393731,"ECCENTRICITY":0.00068804,"INCLINATION":41.4656,"RA_OF_ASC_NODE":239.5396,"ARG_OF_PERICENTER":242.0703,"MEAN_ANOMALY":117.9439,"EPHEMERIS_TYPE":0,"CLASSIFICATION_TYPE":"U","NORAD_CAT_ID":48274,"ELEMENT_SET_NO":999,"REV_AT_EPOCH":27680,"BSTAR":0.00029808174,"MEAN_MOTION_DOT":0.00024935,"MEAN_MOTION_DDOT":0},{"OBJECT_NAME":"COSMOS 2550","OBJECT_ID":"2021-056A","EPOCH":"2026-03-04T13:28:38.212032","MEAN_MOTION":15.33826875,"ECCENTRICITY":0.00083786,"INCLINATION":67.1422,"RA_OF_ASC_NODE":56.4431,"ARG_OF_PERICENTER":270.0173,"MEAN_ANOMALY":90.0021,"EPHEMERIS_TYPE":0,"CLASSIFICATION_TYPE":"U","NORAD_CAT_ID":48865,"ELEMENT_SET_NO":999,"REV_AT_EPOCH":26267,"BSTAR":-1.51836e-7,"MEAN_MOTION_DOT":-1.97e-6,"MEAN_MOTION_DDOT":0},{"OBJECT_NAME":"CZ-2C R/B","OBJECT_ID":"2022-058K","EPOCH":"2026-03-04T04:12:27.832032","MEAN_MOTION":15.53767749,"ECCENTRICITY":0.00421784,"INCLINATION":50.1907,"RA_OF_ASC_NODE":346.6454,"ARG_OF_PERICENTER":177.4326,"MEAN_ANOMALY":182.6868,"EPHEMERIS_TYPE":0,"CLASSIFICATION_TYPE":"U","NORAD_CAT_ID":52794,"ELEMENT_SET_NO":999,"REV_AT_EPOCH":20927,"BSTAR":0.00067772145,"MEAN_MOTION_DOT":0.00045844,"MEAN_MOTION_DDOT":0},{"OBJECT_NAME":"CZ-2C R/B","OBJECT_ID":"2022-132E","EPOCH":"2026-03-04T12:02:12.475392","MEAN_MOTION":15.6133597,"ECCENTRICITY":0.00207008,"INCLINATION":97.296,"RA_OF_ASC_NODE":66.6628,"ARG_OF_PERICENTER":107.7548,"MEAN_ANOMALY":252.5971,"EPHEMERIS_TYPE":0,"CLASSIFICATION_TYPE":"U","NORAD_CAT_ID":54039,"ELEMENT_SET_NO":999,"REV_AT_EPOCH":18956,"BSTAR":0.00070215251,"MEAN_MOTION_DOT":0.00060531,"MEAN_MOTION_DDOT":0},{"OBJECT_NAME":"GSLV R/B","OBJECT_ID":"2022-138AN","EPOCH":"2026-03-04T07:19:49.734336","MEAN_MOTION":14.96730402,"ECCENTRICITY":0.00222219,"INCLINATION":87.3887,"RA_OF_ASC_NODE":168.1641,"ARG_OF_PERICENTER":165.3258,"MEAN_ANOMALY":194.8623,"EPHEMERIS_TYPE":0,"CLASSIFICATION_TYPE":"U","NORAD_CAT_ID":54149,"ELEMENT_SET_NO":999,"REV_AT_EPOCH":18312,"BSTAR":0.00048444434,"MEAN_MOTION_DOT":5.589e-5,"MEAN_MOTION_DDOT":0},{"OBJECT_NAME":"XRISM","OBJECT_ID":"2023-137A","EPOCH":"2026-03-04T00:39:19.889856","MEAN_MOTION":15.11422447,"ECCENTRICITY":0.00081607,"INCLINATION":31.0031,"RA_OF_ASC_NODE":320.2862,"ARG_OF_PERICENTER":341.2942,"MEAN_ANOMALY":18.7396,"EPHEMERIS_TYPE":0,"CLASSIFICATION_TYPE":"U","NORAD_CAT_ID":57800,"ELEMENT_SET_NO":999,"REV_AT_EPOCH":13693,"BSTAR":0.00047678935,"MEAN_MOTION_DOT":8.362e-5,"MEAN_MOTION_DDOT":0},{"OBJECT_NAME":"ACS3","OBJECT_ID":"2024-077B","EPOCH":"2026-03-04T10:58:22.856736","MEAN_MOTION":13.89335925,"ECCENTRICITY":0.00557473,"INCLINATION":97.2108,"RA_OF_ASC_NODE":5.7453,"ARG_OF_PERICENTER":90.7142,"MEAN_ANOMALY":270.041,"EPHEMERIS_TYPE":0,"CLASSIFICATION_TYPE":"U","NORAD_CAT_ID":59588,"ELEMENT_SET_NO":999,"REV_AT_EPOCH":9347,"BSTAR":0.020889948,"MEAN_MOTION_DOT":0.00025829,"MEAN_MOTION_DDOT":0},{"OBJECT_NAME":"SZ-21 MODULE","OBJECT_ID":"2025-246C","EPOCH":"2026-03-04T12:48:09.681696","MEAN_MOTION":15.68084352,"ECCENTRICITY":0.00014354,"INCLINATION":41.4731,"RA_OF_ASC_NODE":235.0908,"ARG_OF_PERICENTER":286.9627,"MEAN_ANOMALY":73.1057,"EPHEMERIS_TYPE":0,"CLASSIFICATION_TYPE":"U","NORAD_CAT_ID":66515,"ELEMENT_SET_NO":999,"REV_AT_EPOCH":1726,"BSTAR":0.00041049242,"MEAN_MOTION_DOT":0.00046935,"MEAN_MOTION_DDOT":0}]
