ASTRO-H (HITOMI)        
1 41337U 16012A   26063.27969878  .00005308  00000+0  31308-3 0  9994
2 41337  31.0006  31.4569 0010012 277.2839  82.6661 15.09959716551417
HXMT (HUIYAN)           
1 42758U 17034A   26063.44586587  .00008265  00000+0  41223-3 0  9990
2 42758  43.0149  45.8240 0032380 203.8527 156.0821 15.17380699481741
SAOCOM 1A               
1 43641U 18076A   26063.62970616  .00000883  00000+0  11747-3 0  9995
2 43641  97.8882 251.8737 0001325  82.1775 277.9589 14.82164315400619
H-2A R/B                
1 43682U 18084L   26063.47397986  .00031408  00000+0  75106-3 0  9991
2 43682  98.8732 279.7485 0025810  42.8998 317.4252 15.41086443404974
SAOCOM 1B               
1 46265U 20059A   26063.66092845  .00000237  00000+0  36318-4 0  9992
2 46265  97.8880 251.0023 0001409  81.3785 278.7588 14.82164871298000
CSS (TIANHE)            
1 48274U 21035A   26063.53175525  .00024935  00000+0  29808-3 0  9998
2 48274  41.4656 239.5396 0006880 242.0703 117.9439 15.60393731276805
COSMOS 2550             
1 48865U 21056A   26063.56155338 -.00000197  00000+0 -15184-6 0  9991
2 48865  67.1422  56.4431 0008378 270.0173  90.0021 15.33826875262677
CZ-2C R/B               
1 52794U 22058K   26063.17532213  .00045844  00000+0  67772-3 0  9991
2 52794  50.1907 346.6454 0042178 177.4326 182.6868 15.53767749209278
CZ-2C R/B               
1 54039U 22132E   26063.50153328  .00060531  00000+0  70215-3 0  9997
2 54039  97.2960  66.6628 0020700 107.7548 252.5971 15.61335970189561
GSLV R/B                
1 54149U 22138AN  26063.30543674  .00005589  00000+0  48444-3 0  9991
2 54149  87.3887 168.1641 0022221 165.3258 194.8623 14.96730402183126
XRISM                   
1 57800U 23137A   26063.02731354  .00008362  00000+0  47679-3 0  9992
2 57800  31.0031 320.2862 0008160 341.2942  18.7396 15.11422447136930
ACS3                    
1 59588U 24077B   26063.45720899  .00025829  00000+0  20890-1 0  9991
2 59588  97.2108   5.7453 0055747  90.7142 270.0410 13.89335925 93474
SZ-21 MODULE            
1 66515U 25246C   26063.53344539  .00046935  00000+0  41049-3 0  9992
2 66515  41.4731 235.0908 0001435 286.9627  73.1057 15.68084352 17266
